sat16268
1 16268U 85094M   20046.90275459  .00000165  00000-0  93475-3 0  9995
2 16268  82.7131 193.3423 0081684 288.0781 229.7242 12.55678497566406
